{
  "type": "FeatureCollection",
  "features": [
    {
      "type": "Feature",
      "properties": {
        "norad_id": 66551,
        "name": "UNKNOWN",
        "group": "last-30-days",
        "lat": 17.450572259068732,
        "lon": -120.02344178574477,
        "alt_km": 328.3569073286326,
        "timestamp": "2025-12-04T17:48:38.963937+00:00",
        "meta_object_name": "UNKNOWN",
        "meta_object_id": "2025-271AE",
        "meta_epoch": "2025-12-02T16:00:03.000096",
        "meta_mean_motion": 15.87051116,
        "meta_eccentricity": 7.17e-05,
        "meta_inclination": 53.1571,
        "meta_ra_of_asc_node": 236.7807,
        "meta_arg_of_pericenter": 110.7411,
        "meta_mean_anomaly": 313.9012,
        "meta_ephemeris_type": 0,
        "meta_classification_type": "U",
        "meta_norad_cat_id": 66551,
        "meta_element_set_no": 999,
        "meta_rev_at_epoch": 262,
        "meta_bstar": -0.0074303,
        "meta_mean_motion_dot": -0.01709685,
        "meta_mean_motion_ddot": 0,
        "tle_line1": "1 66551U 25271AE  25336.66670139 -.01709685  00000+0 -74303-2 0  9993",
        "tle_line2": "2 66551  53.1571 236.7807 0000717 110.7411 313.9012 15.87051116  2624"
      },
      "geometry": {
        "type": "Point",
        "coordinates": [
          -120.02344178574477,
          17.450572259068732
        ]
      }
    },
    {
      "type": "Feature",
      "properties": {
        "norad_id": 66554,
        "name": "GLOBAL-33",
        "group": "last-30-days",
        "lat": -7.710605530131206,
        "lon": -68.19789058366271,
        "alt_km": 475.94086928051456,
        "timestamp": "2025-12-04T17:48:38.963948+00:00",
        "meta_object_name": "GLOBAL-33",
        "meta_object_id": "2025-267A",
        "meta_epoch": "2025-12-04T07:35:11.739840",
        "meta_mean_motion": 15.31329239,
        "meta_eccentricity": 0.00054174,
        "meta_inclination": 42.0188,
        "meta_ra_of_asc_node": 105.6127,
        "meta_arg_of_pericenter": 352.0911,
        "meta_mean_anomaly": 7.984,
        "meta_ephemeris_type": 0,
        "meta_classification_type": "U",
        "meta_norad_cat_id": 66554,
        "meta_element_set_no": 999,
        "meta_rev_at_epoch": 211,
        "meta_bstar": 0.00087786479,
        "meta_mean_motion_dot": 0.00026994,
        "meta_mean_motion_ddot": 0,
        "tle_line1": "1 66554U 25267A   25338.31610810  .00026994  00000+0  87786-3 0  9997",
        "tle_line2": "2 66554  42.0188 105.6127 0005417 352.0911   7.9840 15.31329239  2111"
      },
      "geometry": {
        "type": "Point",
        "coordinates": [
          -68.19789058366271,
          -7.710605530131206
        ]
      }
    },
    {
      "type": "Feature",
      "properties": {
        "norad_id": 66555,
        "name": "ELECTRON KICK STAGE R/B",
        "group": "last-30-days",
        "lat": -29.473775010872608,
        "lon": -38.04818394129131,
        "alt_km": 474.6934909094707,
        "timestamp": "2025-12-04T17:48:38.963958+00:00",
        "meta_object_name": "ELECTRON KICK STAGE R/B",
        "meta_object_id": "2025-267B",
        "meta_epoch": "2025-12-04T07:26:12.244416",
        "meta_mean_motion": 15.32204395,
        "meta_eccentricity": 0.00073266,
        "meta_inclination": 42.0174,
        "meta_ra_of_asc_node": 105.5669,
        "meta_arg_of_pericenter": 351.4521,
        "meta_mean_anomaly": 8.619,
        "meta_ephemeris_type": 0,
        "meta_classification_type": "U",
        "meta_norad_cat_id": 66555,
        "meta_element_set_no": 999,
        "meta_rev_at_epoch": 211,
        "meta_bstar": 0.0015544226,
        "meta_mean_motion_dot": 0.00049498,
        "meta_mean_motion_ddot": 0,
        "tle_line1": "1 66555U 25267B   25338.30986394  .00049498  00000+0  15544-2 0  9996",
        "tle_line2": "2 66555  42.0174 105.5669 0007326 351.4521   8.6190 15.32204395  2110"
      },
      "geometry": {
        "type": "Point",
        "coordinates": [
          -38.04818394129131,
          -29.473775010872608
        ]
      }
    },
    {
      "type": "Feature",
      "properties": {
        "norad_id": 66557,
        "name": "STARLINK-35699",
        "group": "last-30-days",
        "lat": -37.99770756664482,
        "lon": 45.32306184096629,
        "alt_km": 361.0962659466586,
        "timestamp": "2025-12-04T17:48:38.963968+00:00",
        "meta_object_name": "STARLINK-35699",
        "meta_object_id": "2025-268A",
        "meta_epoch": "2025-12-04T08:00:01.999872",
        "meta_mean_motion": 15.71621723,
        "meta_eccentricity": 0.0001689,
        "meta_inclination": 42.9992,
        "meta_ra_of_asc_node": 170.8173,
        "meta_arg_of_pericenter": 275.2725,
        "meta_mean_anomaly": 175.0104,
        "meta_ephemeris_type": 0,
        "meta_classification_type": "U",
        "meta_norad_cat_id": 66557,
        "meta_element_set_no": 999,
        "meta_rev_at_epoch": 331,
        "meta_bstar": -0.016378025,
        "meta_mean_motion_dot": -0.01926067,
        "meta_mean_motion_ddot": 0,
        "tle_line1": "1 66557U 25268A   25338.33335648 -.01926067  00000+0 -16378-1 0  9996",
        "tle_line2": "2 66557  42.9992 170.8173 0001689 275.2725 175.0104 15.71621723  3317"
      },
      "geometry": {
        "type": "Point",
        "coordinates": [
          45.32306184096629,
          -37.99770756664482
        ]
      }
    },
    {
      "type": "Feature",
      "properties": {
        "norad_id": 66558,
        "name": "STARLINK-35695",
        "group": "last-30-days",
        "lat": -38.687406073855875,
        "lon": 47.59648370787814,
        "alt_km": 361.1285301791904,
        "timestamp": "2025-12-04T17:48:38.963978+00:00",
        "meta_object_name": "STARLINK-35695",
        "meta_object_id": "2025-268B",
        "meta_epoch": "2025-12-04T08:00:01.999872",
        "meta_mean_motion": 15.71621543,
        "meta_eccentricity": 0.00016569,
        "meta_inclination": 42.9991,
        "meta_ra_of_asc_node": 170.8126,
        "meta_arg_of_pericenter": 275.6878,
        "meta_mean_anomaly": 176.5125,
        "meta_ephemeris_type": 0,
        "meta_classification_type": "U",
        "meta_norad_cat_id": 66558,
        "meta_element_set_no": 999,
        "meta_rev_at_epoch": 331,
        "meta_bstar": -0.016377242,
        "meta_mean_motion_dot": -0.01925947,
        "meta_mean_motion_ddot": 0,
        "tle_line1": "1 66558U 25268B   25338.33335648 -.01925947  00000+0 -16377-1 0  9992",
        "tle_line2": "2 66558  42.9991 170.8126 0001656 275.6878 176.5125 15.71621543  3311"
      },
      "geometry": {
        "type": "Point",
        "coordinates": [
          47.59648370787814,
          -38.687406073855875
        ]
      }
    },
    {
      "type": "Feature",
      "properties": {
        "norad_id": 66559,
        "name": "STARLINK-35419",
        "group": "last-30-days",
        "lat": -39.33283753297882,
        "lon": 49.915153723041605,
        "alt_km": 361.11571815815023,
        "timestamp": "2025-12-04T17:48:38.963990+00:00",
        "meta_object_name": "STARLINK-35419",
        "meta_object_id": "2025-268C",
        "meta_epoch": "2025-12-04T08:00:01.999872",
        "meta_mean_motion": 15.71621195,
        "meta_eccentricity": 0.00016338,
        "meta_inclination": 42.9992,
        "meta_ra_of_asc_node": 170.8081,
        "meta_arg_of_pericenter": 273.1822,
        "meta_mean_anomaly": 180.9365,
        "meta_ephemeris_type": 0,
        "meta_classification_type": "U",
        "meta_norad_cat_id": 66559,
        "meta_element_set_no": 999,
        "meta_rev_at_epoch": 331,
        "meta_bstar": -0.016375519,
        "meta_mean_motion_dot": -0.01925724,
        "meta_mean_motion_ddot": 0,
        "tle_line1": "1 66559U 25268C   25338.33335648 -.01925724  00000+0 -16376-1 0  9995",
        "tle_line2": "2 66559  42.9992 170.8081 0001633 273.1822 180.9365 15.71621195  3318"
      },
      "geometry": {
        "type": "Point",
        "coordinates": [
          49.915153723041605,
          -39.33283753297882
        ]
      }
    },
    {
      "type": "Feature",
      "properties": {
        "norad_id": 66560,
        "name": "STARLINK-35411",
        "group": "last-30-days",
        "lat": -39.93027735106532,
        "lon": 52.2719655461109,
        "alt_km": 361.1724519431682,
        "timestamp": "2025-12-04T17:48:38.964002+00:00",
        "meta_object_name": "STARLINK-35411",
        "meta_object_id": "2025-268D",
        "meta_epoch": "2025-12-04T08:00:01.999872",
        "meta_mean_motion": 15.71622662,
        "meta_eccentricity": 0.00015856,
        "meta_inclination": 42.9991,
        "meta_ra_of_asc_node": 170.8033,
        "meta_arg_of_pericenter": 274.9902,
        "meta_mean_anomaly": 181.0444,
        "meta_ephemeris_type": 0,
        "meta_classification_type": "U",
        "meta_norad_cat_id": 66560,
        "meta_element_set_no": 999,
        "meta_rev_at_epoch": 331,
        "meta_bstar": -0.016389316,
        "meta_mean_motion_dot": -0.01927231,
        "meta_mean_motion_ddot": 0,
        "tle_line1": "1 66560U 25268D   25338.33335648 -.01927231  00000+0 -16389-1 0  9996",
        "tle_line2": "2 66560  42.9991 170.8033 0001585 274.9902 181.0444 15.71622662  3310"
      },
      "geometry": {
        "type": "Point",
        "coordinates": [
          52.2719655461109,
          -39.93027735106532
        ]
      }
    }
  ]
}